<kml xmlns="http://www.opengis.net/kml/2.2">
  <Document>
    <name>Untitled map</name>
    <description/>
    <Style id="icon-1502-FF5252-normal">
      <IconStyle>
        <scale>1</scale>
        <Icon>
          <href>images/icon-1.png</href>
        </Icon>
      </IconStyle>
      <LabelStyle>
        <scale>0</scale>
      </LabelStyle>
      <BalloonStyle>
        <text>&lt;h3&gt;$[name]&lt;/h3&gt;</text>
      </BalloonStyle>
    </Style>
    <Style id="icon-1502-FF5252-highlight">
      <IconStyle>
        <scale>1</scale>
        <Icon>
          <href>images/icon-1.png</href>
        </Icon>
      </IconStyle>
      <LabelStyle>
        <scale>1</scale>
      </LabelStyle>
      <BalloonStyle>
        <text>&lt;h3&gt;$[name]&lt;/h3&gt;</text>
      </BalloonStyle>
    </Style>
    <StyleMap id="icon-1502-FF5252">
      <Pair>
        <key>normal</key>
        <styleUrl>#icon-1502-FF5252-normal</styleUrl>
      </Pair>
      <Pair>
        <key>highlight</key>
        <styleUrl>#icon-1502-FF5252-highlight</styleUrl>
      </Pair>
    </StyleMap>
    <Style id="icon-1535-000000-normal">
      <IconStyle>
        <scale>1</scale>
        <Icon>
          <href>images/icon-36.png</href>
        </Icon>
      </IconStyle>
      <LabelStyle>
        <scale>0</scale>
      </LabelStyle>
      <BalloonStyle>
        <text>&lt;h3&gt;$[name]&lt;/h3&gt;</text>
      </BalloonStyle>
    </Style>
    <Style id="icon-1535-000000-highlight">
      <IconStyle>
        <scale>1</scale>
        <Icon>
          <href>images/icon-36.png</href>
        </Icon>
      </IconStyle>
      <LabelStyle>
        <scale>1</scale>
      </LabelStyle>
      <BalloonStyle>
        <text>&lt;h3&gt;$[name]&lt;/h3&gt;</text>
      </BalloonStyle>
    </Style>
    <StyleMap id="icon-1535-000000">
      <Pair>
        <key>normal</key>
        <styleUrl>#icon-1535-000000-normal</styleUrl>
      </Pair>
      <Pair>
        <key>highlight</key>
        <styleUrl>#icon-1535-000000-highlight</styleUrl>
      </Pair>
    </StyleMap>
    <Style id="icon-1535-006064-normal">
      <IconStyle>
        <scale>1</scale>
        <Icon>
          <href>images/icon-15.png</href>
        </Icon>
      </IconStyle>
      <LabelStyle>
        <scale>0</scale>
      </LabelStyle>
      <BalloonStyle>
        <text>&lt;h3&gt;$[name]&lt;/h3&gt;</text>
      </BalloonStyle>
    </Style>
    <Style id="icon-1535-006064-highlight">
      <IconStyle>
        <scale>1</scale>
        <Icon>
          <href>images/icon-15.png</href>
        </Icon>
      </IconStyle>
      <LabelStyle>
        <scale>1</scale>
      </LabelStyle>
      <BalloonStyle>
        <text>&lt;h3&gt;$[name]&lt;/h3&gt;</text>
      </BalloonStyle>
    </Style>
    <StyleMap id="icon-1535-006064">
      <Pair>
        <key>normal</key>
        <styleUrl>#icon-1535-006064-normal</styleUrl>
      </Pair>
      <Pair>
        <key>highlight</key>
        <styleUrl>#icon-1535-006064-highlight</styleUrl>
      </Pair>
    </StyleMap>
    <Style id="icon-1535-0097A7-normal">
      <IconStyle>
        <scale>1</scale>
        <Icon>
          <href>images/icon-24.png</href>
        </Icon>
      </IconStyle>
      <LabelStyle>
        <scale>0</scale>
      </LabelStyle>
      <BalloonStyle>
        <text>&lt;h3&gt;$[name]&lt;/h3&gt;</text>
      </BalloonStyle>
    </Style>
    <Style id="icon-1535-0097A7-highlight">
      <IconStyle>
        <scale>1</scale>
        <Icon>
          <href>images/icon-24.png</href>
        </Icon>
      </IconStyle>
      <LabelStyle>
        <scale>1</scale>
      </LabelStyle>
      <BalloonStyle>
        <text>&lt;h3&gt;$[name]&lt;/h3&gt;</text>
      </BalloonStyle>
    </Style>
    <StyleMap id="icon-1535-0097A7">
      <Pair>
        <key>normal</key>
        <styleUrl>#icon-1535-0097A7-normal</styleUrl>
      </Pair>
      <Pair>
        <key>highlight</key>
        <styleUrl>#icon-1535-0097A7-highlight</styleUrl>
      </Pair>
    </StyleMap>
    <Style id="icon-1535-01579B-normal">
      <IconStyle>
        <scale>1</scale>
        <Icon>
          <href>images/icon-16.png</href>
        </Icon>
      </IconStyle>
      <LabelStyle>
        <scale>0</scale>
      </LabelStyle>
      <BalloonStyle>
        <text>&lt;h3&gt;$[name]&lt;/h3&gt;</text>
      </BalloonStyle>
    </Style>
    <Style id="icon-1535-01579B-highlight">
      <IconStyle>
        <scale>1</scale>
        <Icon>
          <href>images/icon-16.png</href>
        </Icon>
      </IconStyle>
      <LabelStyle>
        <scale>1</scale>
      </LabelStyle>
      <BalloonStyle>
        <text>&lt;h3&gt;$[name]&lt;/h3&gt;</text>
      </BalloonStyle>
    </Style>
    <StyleMap id="icon-1535-01579B">
      <Pair>
        <key>normal</key>
        <styleUrl>#icon-1535-01579B-normal</styleUrl>
      </Pair>
      <Pair>
        <key>highlight</key>
        <styleUrl>#icon-1535-01579B-highlight</styleUrl>
      </Pair>
    </StyleMap>
    <Style id="icon-1535-0288D1-normal">
      <IconStyle>
        <scale>1</scale>
        <Icon>
          <href>images/icon-23.png</href>
        </Icon>
      </IconStyle>
      <LabelStyle>
        <scale>0</scale>
      </LabelStyle>
      <BalloonStyle>
        <text>&lt;h3&gt;$[name]&lt;/h3&gt;</text>
      </BalloonStyle>
    </Style>
    <Style id="icon-1535-0288D1-highlight">
      <IconStyle>
        <scale>1</scale>
        <Icon>
          <href>images/icon-23.png</href>
        </Icon>
      </IconStyle>
      <LabelStyle>
        <scale>1</scale>
      </LabelStyle>
      <BalloonStyle>
        <text>&lt;h3&gt;$[name]&lt;/h3&gt;</text>
      </BalloonStyle>
    </Style>
    <StyleMap id="icon-1535-0288D1">
      <Pair>
        <key>normal</key>
        <styleUrl>#icon-1535-0288D1-normal</styleUrl>
      </Pair>
      <Pair>
        <key>highlight</key>
        <styleUrl>#icon-1535-0288D1-highlight</styleUrl>
      </Pair>
    </StyleMap>
    <Style id="icon-1535-097138-normal">
      <IconStyle>
        <scale>1</scale>
        <Icon>
          <href>images/icon-14.png</href>
        </Icon>
      </IconStyle>
      <LabelStyle>
        <scale>0</scale>
      </LabelStyle>
      <BalloonStyle>
        <text>&lt;h3&gt;$[name]&lt;/h3&gt;</text>
      </BalloonStyle>
    </Style>
    <Style id="icon-1535-097138-highlight">
      <IconStyle>
        <scale>1</scale>
        <Icon>
          <href>images/icon-14.png</href>
        </Icon>
      </IconStyle>
      <LabelStyle>
        <scale>1</scale>
      </LabelStyle>
      <BalloonStyle>
        <text>&lt;h3&gt;$[name]&lt;/h3&gt;</text>
      </BalloonStyle>
    </Style>
    <StyleMap id="icon-1535-097138">
      <Pair>
        <key>normal</key>
        <styleUrl>#icon-1535-097138-normal</styleUrl>
      </Pair>
      <Pair>
        <key>highlight</key>
        <styleUrl>#icon-1535-097138-highlight</styleUrl>
      </Pair>
    </StyleMap>
    <Style id="icon-1535-0F9D58-normal">
      <IconStyle>
        <scale>1</scale>
        <Icon>
          <href>images/icon-25.png</href>
        </Icon>
      </IconStyle>
      <LabelStyle>
        <scale>0</scale>
      </LabelStyle>
      <BalloonStyle>
        <text>&lt;h3&gt;$[name]&lt;/h3&gt;</text>
      </BalloonStyle>
    </Style>
    <Style id="icon-1535-0F9D58-highlight">
      <IconStyle>
        <scale>1</scale>
        <Icon>
          <href>images/icon-25.png</href>
        </Icon>
      </IconStyle>
      <LabelStyle>
        <scale>1</scale>
      </LabelStyle>
      <BalloonStyle>
        <text>&lt;h3&gt;$[name]&lt;/h3&gt;</text>
      </BalloonStyle>
    </Style>
    <StyleMap id="icon-1535-0F9D58">
      <Pair>
        <key>normal</key>
        <styleUrl>#icon-1535-0F9D58-normal</styleUrl>
      </Pair>
      <Pair>
        <key>highlight</key>
        <styleUrl>#icon-1535-0F9D58-highlight</styleUrl>
      </Pair>
    </StyleMap>
    <Style id="icon-1535-1A237E-normal">
      <IconStyle>
        <scale>1</scale>
        <Icon>
          <href>images/icon-17.png</href>
        </Icon>
      </IconStyle>
      <LabelStyle>
        <scale>0</scale>
      </LabelStyle>
      <BalloonStyle>
        <text>&lt;h3&gt;$[name]&lt;/h3&gt;</text>
      </BalloonStyle>
    </Style>
    <Style id="icon-1535-1A237E-highlight">
      <IconStyle>
        <scale>1</scale>
        <Icon>
          <href>images/icon-17.png</href>
        </Icon>
      </IconStyle>
      <LabelStyle>
        <scale>1</scale>
      </LabelStyle>
      <BalloonStyle>
        <text>&lt;h3&gt;$[name]&lt;/h3&gt;</text>
      </BalloonStyle>
    </Style>
    <StyleMap id="icon-1535-1A237E">
      <Pair>
        <key>normal</key>
        <styleUrl>#icon-1535-1A237E-normal</styleUrl>
      </Pair>
      <Pair>
        <key>highlight</key>
        <styleUrl>#icon-1535-1A237E-highlight</styleUrl>
      </Pair>
    </StyleMap>
    <Style id="icon-1535-3949AB-normal">
      <IconStyle>
        <scale>1</scale>
        <Icon>
          <href>images/icon-22.png</href>
        </Icon>
      </IconStyle>
      <LabelStyle>
        <scale>0</scale>
      </LabelStyle>
      <BalloonStyle>
        <text>&lt;h3&gt;$[name]&lt;/h3&gt;</text>
      </BalloonStyle>
    </Style>
    <Style id="icon-1535-3949AB-highlight">
      <IconStyle>
        <scale>1</scale>
        <Icon>
          <href>images/icon-22.png</href>
        </Icon>
      </IconStyle>
      <LabelStyle>
        <scale>1</scale>
      </LabelStyle>
      <BalloonStyle>
        <text>&lt;h3&gt;$[name]&lt;/h3&gt;</text>
      </BalloonStyle>
    </Style>
    <StyleMap id="icon-1535-3949AB">
      <Pair>
        <key>normal</key>
        <styleUrl>#icon-1535-3949AB-normal</styleUrl>
      </Pair>
      <Pair>
        <key>highlight</key>
        <styleUrl>#icon-1535-3949AB-highlight</styleUrl>
      </Pair>
    </StyleMap>
    <Style id="icon-1535-424242-normal">
      <IconStyle>
        <scale>1</scale>
        <Icon>
          <href>images/icon-35.png</href>
        </Icon>
      </IconStyle>
      <LabelStyle>
        <scale>0</scale>
      </LabelStyle>
      <BalloonStyle>
        <text>&lt;h3&gt;$[name]&lt;/h3&gt;</text>
      </BalloonStyle>
    </Style>
    <Style id="icon-1535-424242-highlight">
      <IconStyle>
        <scale>1</scale>
        <Icon>
          <href>images/icon-35.png</href>
        </Icon>
      </IconStyle>
      <LabelStyle>
        <scale>1</scale>
      </LabelStyle>
      <BalloonStyle>
        <text>&lt;h3&gt;$[name]&lt;/h3&gt;</text>
      </BalloonStyle>
    </Style>
    <StyleMap id="icon-1535-424242">
      <Pair>
        <key>normal</key>
        <styleUrl>#icon-1535-424242-normal</styleUrl>
      </Pair>
      <Pair>
        <key>highlight</key>
        <styleUrl>#icon-1535-424242-highlight</styleUrl>
      </Pair>
    </StyleMap>
    <Style id="icon-1535-4E342E-normal">
      <IconStyle>
        <scale>1</scale>
        <Icon>
          <href>images/icon-19.png</href>
        </Icon>
      </IconStyle>
      <LabelStyle>
        <scale>0</scale>
      </LabelStyle>
      <BalloonStyle>
        <text>&lt;h3&gt;$[name]&lt;/h3&gt;</text>
      </BalloonStyle>
    </Style>
    <Style id="icon-1535-4E342E-highlight">
      <IconStyle>
        <scale>1</scale>
        <Icon>
          <href>images/icon-19.png</href>
        </Icon>
      </IconStyle>
      <LabelStyle>
        <scale>1</scale>
      </LabelStyle>
      <BalloonStyle>
        <text>&lt;h3&gt;$[name]&lt;/h3&gt;</text>
      </BalloonStyle>
    </Style>
    <StyleMap id="icon-1535-4E342E">
      <Pair>
        <key>normal</key>
        <styleUrl>#icon-1535-4E342E-normal</styleUrl>
      </Pair>
      <Pair>
        <key>highlight</key>
        <styleUrl>#icon-1535-4E342E-highlight</styleUrl>
      </Pair>
    </StyleMap>
    <Style id="icon-1535-558B2F-normal">
      <IconStyle>
        <scale>1</scale>
        <Icon>
          <href>images/icon-13.png</href>
        </Icon>
      </IconStyle>
      <LabelStyle>
        <scale>0</scale>
      </LabelStyle>
      <BalloonStyle>
        <text>&lt;h3&gt;$[name]&lt;/h3&gt;</text>
      </BalloonStyle>
    </Style>
    <Style id="icon-1535-558B2F-highlight">
      <IconStyle>
        <scale>1</scale>
        <Icon>
          <href>images/icon-13.png</href>
        </Icon>
      </IconStyle>
      <LabelStyle>
        <scale>1</scale>
      </LabelStyle>
      <BalloonStyle>
        <text>&lt;h3&gt;$[name]&lt;/h3&gt;</text>
      </BalloonStyle>
    </Style>
    <StyleMap id="icon-1535-558B2F">
      <Pair>
        <key>normal</key>
        <styleUrl>#icon-1535-558B2F-normal</styleUrl>
      </Pair>
      <Pair>
        <key>highlight</key>
        <styleUrl>#icon-1535-558B2F-highlight</styleUrl>
      </Pair>
    </StyleMap>
    <Style id="icon-1535-673AB7-normal">
      <IconStyle>
        <scale>1</scale>
        <Icon>
          <href>images/icon-18.png</href>
        </Icon>
      </IconStyle>
      <LabelStyle>
        <scale>0</scale>
      </LabelStyle>
      <BalloonStyle>
        <text>&lt;h3&gt;$[name]&lt;/h3&gt;</text>
      </BalloonStyle>
    </Style>
    <Style id="icon-1535-673AB7-highlight">
      <IconStyle>
        <scale>1</scale>
        <Icon>
          <href>images/icon-18.png</href>
        </Icon>
      </IconStyle>
      <LabelStyle>
        <scale>1</scale>
      </LabelStyle>
      <BalloonStyle>
        <text>&lt;h3&gt;$[name]&lt;/h3&gt;</text>
      </BalloonStyle>
    </Style>
    <StyleMap id="icon-1535-673AB7">
      <Pair>
        <key>normal</key>
        <styleUrl>#icon-1535-673AB7-normal</styleUrl>
      </Pair>
      <Pair>
        <key>highlight</key>
        <styleUrl>#icon-1535-673AB7-highlight</styleUrl>
      </Pair>
    </StyleMap>
    <Style id="icon-1535-757575-normal">
      <IconStyle>
        <scale>1</scale>
        <Icon>
          <href>images/icon-34.png</href>
        </Icon>
      </IconStyle>
      <LabelStyle>
        <scale>0</scale>
      </LabelStyle>
      <BalloonStyle>
        <text>&lt;h3&gt;$[name]&lt;/h3&gt;</text>
      </BalloonStyle>
    </Style>
    <Style id="icon-1535-757575-highlight">
      <IconStyle>
        <scale>1</scale>
        <Icon>
          <href>images/icon-34.png</href>
        </Icon>
      </IconStyle>
      <LabelStyle>
        <scale>1</scale>
      </LabelStyle>
      <BalloonStyle>
        <text>&lt;h3&gt;$[name]&lt;/h3&gt;</text>
      </BalloonStyle>
    </Style>
    <StyleMap id="icon-1535-757575">
      <Pair>
        <key>normal</key>
        <styleUrl>#icon-1535-757575-normal</styleUrl>
      </Pair>
      <Pair>
        <key>highlight</key>
        <styleUrl>#icon-1535-757575-highlight</styleUrl>
      </Pair>
    </StyleMap>
    <Style id="icon-1535-795548-normal">
      <IconStyle>
        <scale>1</scale>
        <Icon>
          <href>images/icon-20.png</href>
        </Icon>
      </IconStyle>
      <LabelStyle>
        <scale>0</scale>
      </LabelStyle>
      <BalloonStyle>
        <text>&lt;h3&gt;$[name]&lt;/h3&gt;</text>
      </BalloonStyle>
    </Style>
    <Style id="icon-1535-795548-highlight">
      <IconStyle>
        <scale>1</scale>
        <Icon>
          <href>images/icon-20.png</href>
        </Icon>
      </IconStyle>
      <LabelStyle>
        <scale>1</scale>
      </LabelStyle>
      <BalloonStyle>
        <text>&lt;h3&gt;$[name]&lt;/h3&gt;</text>
      </BalloonStyle>
    </Style>
    <StyleMap id="icon-1535-795548">
      <Pair>
        <key>normal</key>
        <styleUrl>#icon-1535-795548-normal</styleUrl>
      </Pair>
      <Pair>
        <key>highlight</key>
        <styleUrl>#icon-1535-795548-highlight</styleUrl>
      </Pair>
    </StyleMap>
    <Style id="icon-1535-7CB342-normal">
      <IconStyle>
        <scale>1</scale>
        <Icon>
          <href>images/icon-26.png</href>
        </Icon>
      </IconStyle>
      <LabelStyle>
        <scale>0</scale>
      </LabelStyle>
      <BalloonStyle>
        <text>&lt;h3&gt;$[name]&lt;/h3&gt;</text>
      </BalloonStyle>
    </Style>
    <Style id="icon-1535-7CB342-highlight">
      <IconStyle>
        <scale>1</scale>
        <Icon>
          <href>images/icon-26.png</href>
        </Icon>
      </IconStyle>
      <LabelStyle>
        <scale>1</scale>
      </LabelStyle>
      <BalloonStyle>
        <text>&lt;h3&gt;$[name]&lt;/h3&gt;</text>
      </BalloonStyle>
    </Style>
    <StyleMap id="icon-1535-7CB342">
      <Pair>
        <key>normal</key>
        <styleUrl>#icon-1535-7CB342-normal</styleUrl>
      </Pair>
      <Pair>
        <key>highlight</key>
        <styleUrl>#icon-1535-7CB342-highlight</styleUrl>
      </Pair>
    </StyleMap>
    <Style id="icon-1535-817717-normal">
      <IconStyle>
        <scale>1</scale>
        <Icon>
          <href>images/icon-12.png</href>
        </Icon>
      </IconStyle>
      <LabelStyle>
        <scale>0</scale>
      </LabelStyle>
      <BalloonStyle>
        <text>&lt;h3&gt;$[name]&lt;/h3&gt;</text>
      </BalloonStyle>
    </Style>
    <Style id="icon-1535-817717-highlight">
      <IconStyle>
        <scale>1</scale>
        <Icon>
          <href>images/icon-12.png</href>
        </Icon>
      </IconStyle>
      <LabelStyle>
        <scale>1</scale>
      </LabelStyle>
      <BalloonStyle>
        <text>&lt;h3&gt;$[name]&lt;/h3&gt;</text>
      </BalloonStyle>
    </Style>
    <StyleMap id="icon-1535-817717">
      <Pair>
        <key>normal</key>
        <styleUrl>#icon-1535-817717-normal</styleUrl>
      </Pair>
      <Pair>
        <key>highlight</key>
        <styleUrl>#icon-1535-817717-highlight</styleUrl>
      </Pair>
    </StyleMap>
    <Style id="icon-1535-880E4F-normal">
      <IconStyle>
        <scale>1</scale>
        <Icon>
          <href>images/icon-7.png</href>
        </Icon>
      </IconStyle>
      <LabelStyle>
        <scale>0</scale>
      </LabelStyle>
      <BalloonStyle>
        <text>&lt;h3&gt;$[name]&lt;/h3&gt;</text>
      </BalloonStyle>
    </Style>
    <Style id="icon-1535-880E4F-highlight">
      <IconStyle>
        <scale>1</scale>
        <Icon>
          <href>images/icon-7.png</href>
        </Icon>
      </IconStyle>
      <LabelStyle>
        <scale>1</scale>
      </LabelStyle>
      <BalloonStyle>
        <text>&lt;h3&gt;$[name]&lt;/h3&gt;</text>
      </BalloonStyle>
    </Style>
    <StyleMap id="icon-1535-880E4F">
      <Pair>
        <key>normal</key>
        <styleUrl>#icon-1535-880E4F-normal</styleUrl>
      </Pair>
      <Pair>
        <key>highlight</key>
        <styleUrl>#icon-1535-880E4F-highlight</styleUrl>
      </Pair>
    </StyleMap>
    <Style id="icon-1535-9C27B0-normal">
      <IconStyle>
        <scale>1</scale>
        <Icon>
          <href>images/icon-21.png</href>
        </Icon>
      </IconStyle>
      <LabelStyle>
        <scale>0</scale>
      </LabelStyle>
      <BalloonStyle>
        <text>&lt;h3&gt;$[name]&lt;/h3&gt;</text>
      </BalloonStyle>
    </Style>
    <Style id="icon-1535-9C27B0-highlight">
      <IconStyle>
        <scale>1</scale>
        <Icon>
          <href>images/icon-21.png</href>
        </Icon>
      </IconStyle>
      <LabelStyle>
        <scale>1</scale>
      </LabelStyle>
      <BalloonStyle>
        <text>&lt;h3&gt;$[name]&lt;/h3&gt;</text>
      </BalloonStyle>
    </Style>
    <StyleMap id="icon-1535-9C27B0">
      <Pair>
        <key>normal</key>
        <styleUrl>#icon-1535-9C27B0-normal</styleUrl>
      </Pair>
      <Pair>
        <key>highlight</key>
        <styleUrl>#icon-1535-9C27B0-highlight</styleUrl>
      </Pair>
    </StyleMap>
    <Style id="icon-1535-A52714-normal">
      <IconStyle>
        <scale>1</scale>
        <Icon>
          <href>images/icon-8.png</href>
        </Icon>
      </IconStyle>
      <LabelStyle>
        <scale>0</scale>
      </LabelStyle>
      <BalloonStyle>
        <text>&lt;h3&gt;$[name]&lt;/h3&gt;</text>
      </BalloonStyle>
    </Style>
    <Style id="icon-1535-A52714-highlight">
      <IconStyle>
        <scale>1</scale>
        <Icon>
          <href>images/icon-8.png</href>
        </Icon>
      </IconStyle>
      <LabelStyle>
        <scale>1</scale>
      </LabelStyle>
      <BalloonStyle>
        <text>&lt;h3&gt;$[name]&lt;/h3&gt;</text>
      </BalloonStyle>
    </Style>
    <StyleMap id="icon-1535-A52714">
      <Pair>
        <key>normal</key>
        <styleUrl>#icon-1535-A52714-normal</styleUrl>
      </Pair>
      <Pair>
        <key>highlight</key>
        <styleUrl>#icon-1535-A52714-highlight</styleUrl>
      </Pair>
    </StyleMap>
    <Style id="icon-1535-AFB42B-normal">
      <IconStyle>
        <scale>1</scale>
        <Icon>
          <href>images/icon-27.png</href>
        </Icon>
      </IconStyle>
      <LabelStyle>
        <scale>0</scale>
      </LabelStyle>
      <BalloonStyle>
        <text>&lt;h3&gt;$[name]&lt;/h3&gt;</text>
      </BalloonStyle>
    </Style>
    <Style id="icon-1535-AFB42B-highlight">
      <IconStyle>
        <scale>1</scale>
        <Icon>
          <href>images/icon-27.png</href>
        </Icon>
      </IconStyle>
      <LabelStyle>
        <scale>1</scale>
      </LabelStyle>
      <BalloonStyle>
        <text>&lt;h3&gt;$[name]&lt;/h3&gt;</text>
      </BalloonStyle>
    </Style>
    <StyleMap id="icon-1535-AFB42B">
      <Pair>
        <key>normal</key>
        <styleUrl>#icon-1535-AFB42B-normal</styleUrl>
      </Pair>
      <Pair>
        <key>highlight</key>
        <styleUrl>#icon-1535-AFB42B-highlight</styleUrl>
      </Pair>
    </StyleMap>
    <Style id="icon-1535-BDBDBD-normal">
      <IconStyle>
        <scale>1</scale>
        <Icon>
          <href>images/icon-33.png</href>
        </Icon>
      </IconStyle>
      <LabelStyle>
        <scale>0</scale>
      </LabelStyle>
      <BalloonStyle>
        <text>&lt;h3&gt;$[name]&lt;/h3&gt;</text>
      </BalloonStyle>
    </Style>
    <Style id="icon-1535-BDBDBD-highlight">
      <IconStyle>
        <scale>1</scale>
        <Icon>
          <href>images/icon-33.png</href>
        </Icon>
      </IconStyle>
      <LabelStyle>
        <scale>1</scale>
      </LabelStyle>
      <BalloonStyle>
        <text>&lt;h3&gt;$[name]&lt;/h3&gt;</text>
      </BalloonStyle>
    </Style>
    <StyleMap id="icon-1535-BDBDBD">
      <Pair>
        <key>normal</key>
        <styleUrl>#icon-1535-BDBDBD-normal</styleUrl>
      </Pair>
      <Pair>
        <key>highlight</key>
        <styleUrl>#icon-1535-BDBDBD-highlight</styleUrl>
      </Pair>
    </StyleMap>
    <Style id="icon-1535-C2185B-normal">
      <IconStyle>
        <scale>1</scale>
        <Icon>
          <href>images/icon-32.png</href>
        </Icon>
      </IconStyle>
      <LabelStyle>
        <scale>0</scale>
      </LabelStyle>
      <BalloonStyle>
        <text>&lt;h3&gt;$[name]&lt;/h3&gt;</text>
      </BalloonStyle>
    </Style>
    <Style id="icon-1535-C2185B-highlight">
      <IconStyle>
        <scale>1</scale>
        <Icon>
          <href>images/icon-32.png</href>
        </Icon>
      </IconStyle>
      <LabelStyle>
        <scale>1</scale>
      </LabelStyle>
      <BalloonStyle>
        <text>&lt;h3&gt;$[name]&lt;/h3&gt;</text>
      </BalloonStyle>
    </Style>
    <StyleMap id="icon-1535-C2185B">
      <Pair>
        <key>normal</key>
        <styleUrl>#icon-1535-C2185B-normal</styleUrl>
      </Pair>
      <Pair>
        <key>highlight</key>
        <styleUrl>#icon-1535-C2185B-highlight</styleUrl>
      </Pair>
    </StyleMap>
    <Style id="icon-1535-E65100-normal">
      <IconStyle>
        <scale>1</scale>
        <Icon>
          <href>images/icon-9.png</href>
        </Icon>
      </IconStyle>
      <LabelStyle>
        <scale>0</scale>
      </LabelStyle>
      <BalloonStyle>
        <text>&lt;h3&gt;$[name]&lt;/h3&gt;</text>
      </BalloonStyle>
    </Style>
    <Style id="icon-1535-E65100-highlight">
      <IconStyle>
        <scale>1</scale>
        <Icon>
          <href>images/icon-9.png</href>
        </Icon>
      </IconStyle>
      <LabelStyle>
        <scale>1</scale>
      </LabelStyle>
      <BalloonStyle>
        <text>&lt;h3&gt;$[name]&lt;/h3&gt;</text>
      </BalloonStyle>
    </Style>
    <StyleMap id="icon-1535-E65100">
      <Pair>
        <key>normal</key>
        <styleUrl>#icon-1535-E65100-normal</styleUrl>
      </Pair>
      <Pair>
        <key>highlight</key>
        <styleUrl>#icon-1535-E65100-highlight</styleUrl>
      </Pair>
    </StyleMap>
    <Style id="icon-1535-F57C00-normal">
      <IconStyle>
        <scale>1</scale>
        <Icon>
          <href>images/icon-30.png</href>
        </Icon>
      </IconStyle>
      <LabelStyle>
        <scale>0</scale>
      </LabelStyle>
      <BalloonStyle>
        <text>&lt;h3&gt;$[name]&lt;/h3&gt;</text>
      </BalloonStyle>
    </Style>
    <Style id="icon-1535-F57C00-highlight">
      <IconStyle>
        <scale>1</scale>
        <Icon>
          <href>images/icon-30.png</href>
        </Icon>
      </IconStyle>
      <LabelStyle>
        <scale>1</scale>
      </LabelStyle>
      <BalloonStyle>
        <text>&lt;h3&gt;$[name]&lt;/h3&gt;</text>
      </BalloonStyle>
    </Style>
    <StyleMap id="icon-1535-F57C00">
      <Pair>
        <key>normal</key>
        <styleUrl>#icon-1535-F57C00-normal</styleUrl>
      </Pair>
      <Pair>
        <key>highlight</key>
        <styleUrl>#icon-1535-F57C00-highlight</styleUrl>
      </Pair>
    </StyleMap>
    <Style id="icon-1535-F9A825-normal">
      <IconStyle>
        <scale>1</scale>
        <Icon>
          <href>images/icon-10.png</href>
        </Icon>
      </IconStyle>
      <LabelStyle>
        <scale>0</scale>
      </LabelStyle>
      <BalloonStyle>
        <text>&lt;h3&gt;$[name]&lt;/h3&gt;</text>
      </BalloonStyle>
    </Style>
    <Style id="icon-1535-F9A825-highlight">
      <IconStyle>
        <scale>1</scale>
        <Icon>
          <href>images/icon-10.png</href>
        </Icon>
      </IconStyle>
      <LabelStyle>
        <scale>1</scale>
      </LabelStyle>
      <BalloonStyle>
        <text>&lt;h3&gt;$[name]&lt;/h3&gt;</text>
      </BalloonStyle>
    </Style>
    <StyleMap id="icon-1535-F9A825">
      <Pair>
        <key>normal</key>
        <styleUrl>#icon-1535-F9A825-normal</styleUrl>
      </Pair>
      <Pair>
        <key>highlight</key>
        <styleUrl>#icon-1535-F9A825-highlight</styleUrl>
      </Pair>
    </StyleMap>
    <Style id="icon-1535-FBC02D-normal">
      <IconStyle>
        <scale>1</scale>
        <Icon>
          <href>images/icon-29.png</href>
        </Icon>
      </IconStyle>
      <LabelStyle>
        <scale>0</scale>
      </LabelStyle>
      <BalloonStyle>
        <text>&lt;h3&gt;$[name]&lt;/h3&gt;</text>
      </BalloonStyle>
    </Style>
    <Style id="icon-1535-FBC02D-highlight">
      <IconStyle>
        <scale>1</scale>
        <Icon>
          <href>images/icon-29.png</href>
        </Icon>
      </IconStyle>
      <LabelStyle>
        <scale>1</scale>
      </LabelStyle>
      <BalloonStyle>
        <text>&lt;h3&gt;$[name]&lt;/h3&gt;</text>
      </BalloonStyle>
    </Style>
    <StyleMap id="icon-1535-FBC02D">
      <Pair>
        <key>normal</key>
        <styleUrl>#icon-1535-FBC02D-normal</styleUrl>
      </Pair>
      <Pair>
        <key>highlight</key>
        <styleUrl>#icon-1535-FBC02D-highlight</styleUrl>
      </Pair>
    </StyleMap>
    <Style id="icon-1535-FF5252-normal">
      <IconStyle>
        <scale>1</scale>
        <Icon>
          <href>images/icon-31.png</href>
        </Icon>
      </IconStyle>
      <LabelStyle>
        <scale>0</scale>
      </LabelStyle>
      <BalloonStyle>
        <text>&lt;h3&gt;$[name]&lt;/h3&gt;</text>
      </BalloonStyle>
    </Style>
    <Style id="icon-1535-FF5252-highlight">
      <IconStyle>
        <scale>1</scale>
        <Icon>
          <href>images/icon-31.png</href>
        </Icon>
      </IconStyle>
      <LabelStyle>
        <scale>1</scale>
      </LabelStyle>
      <BalloonStyle>
        <text>&lt;h3&gt;$[name]&lt;/h3&gt;</text>
      </BalloonStyle>
    </Style>
    <StyleMap id="icon-1535-FF5252">
      <Pair>
        <key>normal</key>
        <styleUrl>#icon-1535-FF5252-normal</styleUrl>
      </Pair>
      <Pair>
        <key>highlight</key>
        <styleUrl>#icon-1535-FF5252-highlight</styleUrl>
      </Pair>
    </StyleMap>
    <Style id="icon-1535-FFD600-normal">
      <IconStyle>
        <scale>1</scale>
        <Icon>
          <href>images/icon-11.png</href>
        </Icon>
      </IconStyle>
      <LabelStyle>
        <scale>0</scale>
      </LabelStyle>
      <BalloonStyle>
        <text>&lt;h3&gt;$[name]&lt;/h3&gt;</text>
      </BalloonStyle>
    </Style>
    <Style id="icon-1535-FFD600-highlight">
      <IconStyle>
        <scale>1</scale>
        <Icon>
          <href>images/icon-11.png</href>
        </Icon>
      </IconStyle>
      <LabelStyle>
        <scale>1</scale>
      </LabelStyle>
      <BalloonStyle>
        <text>&lt;h3&gt;$[name]&lt;/h3&gt;</text>
      </BalloonStyle>
    </Style>
    <StyleMap id="icon-1535-FFD600">
      <Pair>
        <key>normal</key>
        <styleUrl>#icon-1535-FFD600-normal</styleUrl>
      </Pair>
      <Pair>
        <key>highlight</key>
        <styleUrl>#icon-1535-FFD600-highlight</styleUrl>
      </Pair>
    </StyleMap>
    <Style id="icon-1535-FFEA00-normal">
      <IconStyle>
        <scale>1</scale>
        <Icon>
          <href>images/icon-28.png</href>
        </Icon>
      </IconStyle>
      <LabelStyle>
        <scale>0</scale>
      </LabelStyle>
      <BalloonStyle>
        <text>&lt;h3&gt;$[name]&lt;/h3&gt;</text>
      </BalloonStyle>
    </Style>
    <Style id="icon-1535-FFEA00-highlight">
      <IconStyle>
        <scale>1</scale>
        <Icon>
          <href>images/icon-28.png</href>
        </Icon>
      </IconStyle>
      <LabelStyle>
        <scale>1</scale>
      </LabelStyle>
      <BalloonStyle>
        <text>&lt;h3&gt;$[name]&lt;/h3&gt;</text>
      </BalloonStyle>
    </Style>
    <StyleMap id="icon-1535-FFEA00">
      <Pair>
        <key>normal</key>
        <styleUrl>#icon-1535-FFEA00-normal</styleUrl>
      </Pair>
      <Pair>
        <key>highlight</key>
        <styleUrl>#icon-1535-FFEA00-highlight</styleUrl>
      </Pair>
    </StyleMap>
    <Style id="icon-1899-0288D1-normal">
      <IconStyle>
        <scale>1</scale>
        <Icon>
          <href>images/icon-5.png</href>
        </Icon>
        <hotSpot x="32" xunits="pixels" y="64" yunits="insetPixels"/>
      </IconStyle>
      <LabelStyle>
        <scale>0</scale>
      </LabelStyle>
      <BalloonStyle>
        <text>&lt;h3&gt;$[name]&lt;/h3&gt;</text>
      </BalloonStyle>
    </Style>
    <Style id="icon-1899-0288D1-highlight">
      <IconStyle>
        <scale>1</scale>
        <Icon>
          <href>images/icon-5.png</href>
        </Icon>
        <hotSpot x="32" xunits="pixels" y="64" yunits="insetPixels"/>
      </IconStyle>
      <LabelStyle>
        <scale>1</scale>
      </LabelStyle>
      <BalloonStyle>
        <text>&lt;h3&gt;$[name]&lt;/h3&gt;</text>
      </BalloonStyle>
    </Style>
    <StyleMap id="icon-1899-0288D1">
      <Pair>
        <key>normal</key>
        <styleUrl>#icon-1899-0288D1-normal</styleUrl>
      </Pair>
      <Pair>
        <key>highlight</key>
        <styleUrl>#icon-1899-0288D1-highlight</styleUrl>
      </Pair>
    </StyleMap>
    <Style id="icon-1899-3949AB-normal">
      <IconStyle>
        <scale>1</scale>
        <Icon>
          <href>images/icon-6.png</href>
        </Icon>
        <hotSpot x="32" xunits="pixels" y="64" yunits="insetPixels"/>
      </IconStyle>
      <LabelStyle>
        <scale>0</scale>
      </LabelStyle>
      <BalloonStyle>
        <text>&lt;h3&gt;$[name]&lt;/h3&gt;</text>
      </BalloonStyle>
    </Style>
    <Style id="icon-1899-3949AB-highlight">
      <IconStyle>
        <scale>1</scale>
        <Icon>
          <href>images/icon-6.png</href>
        </Icon>
        <hotSpot x="32" xunits="pixels" y="64" yunits="insetPixels"/>
      </IconStyle>
      <LabelStyle>
        <scale>1</scale>
      </LabelStyle>
      <BalloonStyle>
        <text>&lt;h3&gt;$[name]&lt;/h3&gt;</text>
      </BalloonStyle>
    </Style>
    <StyleMap id="icon-1899-3949AB">
      <Pair>
        <key>normal</key>
        <styleUrl>#icon-1899-3949AB-normal</styleUrl>
      </Pair>
      <Pair>
        <key>highlight</key>
        <styleUrl>#icon-1899-3949AB-highlight</styleUrl>
      </Pair>
    </StyleMap>
    <Style id="icon-1899-757575-normal">
      <IconStyle>
        <scale>1</scale>
        <Icon>
          <href>images/icon-3.png</href>
        </Icon>
        <hotSpot x="32" xunits="pixels" y="64" yunits="insetPixels"/>
      </IconStyle>
      <LabelStyle>
        <scale>0</scale>
      </LabelStyle>
      <BalloonStyle>
        <text>&lt;h3&gt;$[name]&lt;/h3&gt;</text>
      </BalloonStyle>
    </Style>
    <Style id="icon-1899-757575-highlight">
      <IconStyle>
        <scale>1</scale>
        <Icon>
          <href>images/icon-3.png</href>
        </Icon>
        <hotSpot x="32" xunits="pixels" y="64" yunits="insetPixels"/>
      </IconStyle>
      <LabelStyle>
        <scale>1</scale>
      </LabelStyle>
      <BalloonStyle>
        <text>&lt;h3&gt;$[name]&lt;/h3&gt;</text>
      </BalloonStyle>
    </Style>
    <StyleMap id="icon-1899-757575">
      <Pair>
        <key>normal</key>
        <styleUrl>#icon-1899-757575-normal</styleUrl>
      </Pair>
      <Pair>
        <key>highlight</key>
        <styleUrl>#icon-1899-757575-highlight</styleUrl>
      </Pair>
    </StyleMap>
    <Style id="icon-1899-795548-normal">
      <IconStyle>
        <scale>1</scale>
        <Icon>
          <href>images/icon-4.png</href>
        </Icon>
        <hotSpot x="32" xunits="pixels" y="64" yunits="insetPixels"/>
      </IconStyle>
      <LabelStyle>
        <scale>0</scale>
      </LabelStyle>
      <BalloonStyle>
        <text>&lt;h3&gt;$[name]&lt;/h3&gt;</text>
      </BalloonStyle>
    </Style>
    <Style id="icon-1899-795548-highlight">
      <IconStyle>
        <scale>1</scale>
        <Icon>
          <href>images/icon-4.png</href>
        </Icon>
        <hotSpot x="32" xunits="pixels" y="64" yunits="insetPixels"/>
      </IconStyle>
      <LabelStyle>
        <scale>1</scale>
      </LabelStyle>
      <BalloonStyle>
        <text>&lt;h3&gt;$[name]&lt;/h3&gt;</text>
      </BalloonStyle>
    </Style>
    <StyleMap id="icon-1899-795548">
      <Pair>
        <key>normal</key>
        <styleUrl>#icon-1899-795548-normal</styleUrl>
      </Pair>
      <Pair>
        <key>highlight</key>
        <styleUrl>#icon-1899-795548-highlight</styleUrl>
      </Pair>
    </StyleMap>
    <Style id="icon-1899-FFEA00-normal">
      <IconStyle>
        <scale>1</scale>
        <Icon>
          <href>images/icon-2.png</href>
        </Icon>
        <hotSpot x="32" xunits="pixels" y="64" yunits="insetPixels"/>
      </IconStyle>
      <LabelStyle>
        <scale>0</scale>
      </LabelStyle>
      <BalloonStyle>
        <text>&lt;h3&gt;$[name]&lt;/h3&gt;</text>
      </BalloonStyle>
    </Style>
    <Style id="icon-1899-FFEA00-highlight">
      <IconStyle>
        <scale>1</scale>
        <Icon>
          <href>images/icon-2.png</href>
        </Icon>
        <hotSpot x="32" xunits="pixels" y="64" yunits="insetPixels"/>
      </IconStyle>
      <LabelStyle>
        <scale>1</scale>
      </LabelStyle>
      <BalloonStyle>
        <text>&lt;h3&gt;$[name]&lt;/h3&gt;</text>
      </BalloonStyle>
    </Style>
    <StyleMap id="icon-1899-FFEA00">
      <Pair>
        <key>normal</key>
        <styleUrl>#icon-1899-FFEA00-normal</styleUrl>
      </Pair>
      <Pair>
        <key>highlight</key>
        <styleUrl>#icon-1899-FFEA00-highlight</styleUrl>
      </Pair>
    </StyleMap>
    <Folder>
      <name xmlns:py="http://codespeak.net/lxml/objectify/pytype" py:pytype="str">Submissions</name>
      <Placemark xmlns:atom="http://www.w3.org/2005/Atom" xmlns:gx="http://www.google.com/kml/ext/2.2">
        <name>48.288698, -101.323047</name>
        <styleUrl>#icon-1502-FF5252</styleUrl>
        <Point>
          <coordinates>-101.323047,48.288698,0</coordinates>
        </Point>
      </Placemark>
      <Placemark xmlns:atom="http://www.w3.org/2005/Atom" xmlns:gx="http://www.google.com/kml/ext/2.2">
        <name>Sean30303,chupoxag</name>
        <description>https://discord.com/channels/851583874768044052/1360751870381129868/1557621548980895775</description>
        <styleUrl xmlns:py="http://codespeak.net/lxml/objectify/pytype" py:pytype="str">#icon-1899-FFEA00</styleUrl>
        <Point>
          <coordinates>-102.99089072456987,48.529651165908724,0</coordinates>
        </Point>
      </Placemark>
    </Folder>
    <Folder>
      <Placemark xmlns:atom="http://www.w3.org/2005/Atom" xmlns:gx="http://www.google.com/kml/ext/2.2">
        <name>Sean30303</name>
        <description>https://discord.com/channels/851583874768044052/1360751870381129868/1557621548980895775</description>
        <styleUrl xmlns:py="http://codespeak.net/lxml/objectify/pytype" py:pytype="str">#icon-1535-000000</styleUrl>
        <Point>
          <coordinates>-84.60674,45.85777,0</coordinates>
        </Point>
      </Placemark>
      <Placemark xmlns:atom="http://www.w3.org/2005/Atom" xmlns:gx="http://www.google.com/kml/ext/2.2">
        <name>chupoxag</name>
        <description>https://discord.com/channels/851583874768044052/1360751870381129868/1557621548980895775</description>
        <styleUrl xmlns:py="http://codespeak.net/lxml/objectify/pytype" py:pytype="str">#icon-1535-000000</styleUrl>
        <Point>
          <coordinates>-122.185055,48.080144,0</coordinates>
        </Point>
      </Placemark>
      <Placemark xmlns:xsi="http://www.w3.org/2001/XMLSchema-instance" xsi:nil="true"/>
      <Placemark xmlns:xsi="http://www.w3.org/2001/XMLSchema-instance" xsi:nil="true"/>
      <name xmlns:py="http://codespeak.net/lxml/objectify/pytype" py:pytype="str">Individual Submissions</name>
    </Folder>
  </Document>
</kml>
